[{"OBJECT_NAME":"WSF-M","OBJECT_ID":"2024-070A","EPOCH":"2026-03-09T22:09:23.192640","MEAN_MOTION":14.20717963,"ECCENTRICITY":0.00037513,"INCLINATION":98.7203,"RA_OF_ASC_NODE":78.2024,"ARG_OF_PERICENTER":243.7691,"MEAN_ANOMALY":116.31,"EPHEMERIS_TYPE":0,"CLASSIFICATION_TYPE":"U","NORAD_CAT_ID":59481,"ELEMENT_SET_NO":999,"REV_AT_EPOCH":9900,"BSTAR":5.7491191e-5,"MEAN_MOTION_DOT":8.0e-7,"MEAN_MOTION_DDOT":0},{"OBJECT_NAME":"CZ-6A DEB","OBJECT_ID":"2024-140CX","EPOCH":"2026-03-09T15:15:42.349248","MEAN_MOTION":14.17367032,"ECCENTRICITY":0.0060305,"INCLINATION":89.0081,"RA_OF_ASC_NODE":287.0684,"ARG_OF_PERICENTER":166.126,"MEAN_ANOMALY":194.1603,"EPHEMERIS_TYPE":0,"CLASSIFICATION_TYPE":"U","NORAD_CAT_ID":60694,"ELEMENT_SET_NO":999,"REV_AT_EPOCH":8180,"BSTAR":0.00049027,"MEAN_MOTION_DOT":1.024e-5,"MEAN_MOTION_DDOT":0}]
